[
  {
    "index": 32,
    "satnum": 128,
    "tle1": "1 00128U 61015N   25311.89225882  .00000127  00000+0  13097-3 0  9992",
    "tle2": "2 00128  66.6769  13.3205 0086928 112.3101 248.7227 14.01957217284057",
    "latitude": 43.51150799263692,
    "longitude": -159.7940999092056,
    "altitude": 833168.9931663659
  },
  {
    "index": 33,
    "satnum": 130,
    "tle1": "1 00130U 61015Q   25312.12044355  .00000123  00000+0  13454-3 0  9999",
    "tle2": "2 00130  66.7705  79.9903 0078561  84.8089 276.1953 13.99358530280524",
    "latitude": 47.410449023514246,
    "longitude": 139.16007432296115,
    "altitude": 853545.9078861368
  },
  {
    "index": 34,
    "satnum": 131,
    "tle1": "1 00131U 61015R   25312.20512625  .00000229  00000+0  19666-3 0  9997",
    "tle2": "2 00131  66.7342 294.5148 0085673 226.7886 132.6021 14.01681614272497",
    "latitude": -8.428671319950032,
    "longitude": -37.422493449752544,
    "altitude": 926519.1907390845
  },
  {
    "index": 35,
    "satnum": 132,
    "tle1": "1 00132U 61015S   25312.08299628  .00000030  00000+0  79247-4 0  9991",
    "tle2": "2 00132  66.6583 158.4276 0077333 334.0983  25.6233 13.94727747272832",
    "latitude": -43.70956613961233,
    "longitude": 34.06217715415853,
    "altitude": 942339.6229201407
  },
  {
    "index": 36,
    "satnum": 133,
    "tle1": "1 00133U 61015T   25312.03412880  .00001408  00000+0  65571-3 0  9998",
    "tle2": "2 00133  67.1150  61.7488 0054563 309.4354  50.1921 14.22538772302020",
    "latitude": -7.602617159968098,
    "longitude": -83.80307652054243,
    "altitude": 840118.0622939719
  },
  {
    "index": 37,
    "satnum": 134,
    "tle1": "1 00134U 61015U   25312.18232848  .00000254  00000+0  22839-3 0  9997",
    "tle2": "2 00134  66.8796 230.8946 0082522 346.5518  13.3365 13.97671547274818",
    "latitude": 65.71289545910386,
    "longitude": 12.29311102894657,
    "altitude": 934354.4060227905
  },
  {
    "index": 38,
    "satnum": 136,
    "tle1": "1 00136U 61015W   25311.90328544  .00003000  00000+0  93872-3 0  9994",
    "tle2": "2 00136  67.5273 130.8940 0050731 238.7586 120.8549 14.41194077324862",
    "latitude": -15.491093164536323,
    "longitude": -11.684240123946937,
    "altitude": 732766.8261802901
  },
  {
    "index": 39,
    "satnum": 138,
    "tle1": "1 00138U 61015Y   25312.18681595  .00000908  00000+0  61349-3 0  9993",
    "tle2": "2 00138  67.1539 285.9609 0035940 288.1755  71.5422 14.04444788271792",
    "latitude": 67.23166858613861,
    "longitude": 44.54694525861806,
    "altitude": 913920.220826023
  },
  {
    "index": 40,
    "satnum": 141,
    "tle1": "1 00141U 61015AB  25312.13692973  .00000436  00000+0  41979-3 0  9997",
    "tle2": "2 00141  66.5881 226.7310 0057077 198.4552 161.4454 13.88800633241128",
    "latitude": -48.26578080759318,
    "longitude": -130.590325673214,
    "altitude": 963220.0714207639
  },
  {
    "index": 41,
    "satnum": 144,
    "tle1": "1 00144U 61015AE  25312.16482889  .00000329  00000+0  32014-3 0  9997",
    "tle2": "2 00144  66.4993 215.0079 0038132 149.8746 210.4534 13.91522242253895",
    "latitude": 6.963443321252132,
    "longitude": 63.587069263229886,
    "altitude": 899045.1633822413
  },
  {
    "index": 42,
    "satnum": 145,
    "tle1": "1 00145U 61015AF  25312.10387786  .00000582  00000+0  41787-3 0  9990",
    "tle2": "2 00145  66.9263 211.0586 0056507 101.1344 259.6102 14.03102470285691",
    "latitude": 30.835099519015852,
    "longitude": 47.85955300761263,
    "altitude": 857308.7367739208
  },
  {
    "index": 43,
    "satnum": 147,
    "tle1": "1 00147U 61015AH  25312.09024054  .00001289  00000+0  58999-3 0  9994",
    "tle2": "2 00147  66.6166 215.2820 0058308 236.0292 123.5253 14.23751297302987",
    "latitude": -66.1578775471782,
    "longitude": 143.33115004332353,
    "altitude": 800231.5074300086
  },
  {
    "index": 44,
    "satnum": 148,
    "tle1": "1 00148U 61015AJ  25312.15817579  .00001110  00000+0  62247-3 0  9998",
    "tle2": "2 00148  65.7724 335.3263 0131135  74.3832 287.1675 14.10335083727800",
    "latitude": -58.31155057964844,
    "longitude": -126.6953917023552,
    "altitude": 974321.03028238
  },
  {
    "index": 45,
    "satnum": 150,
    "tle1": "1 00150U 61015AL  25312.12028308  .00000340  00000+0  37499-3 0  9997",
    "tle2": "2 00150  66.2466  88.3893 0055634  17.6342 342.6643 13.83615148 77915",
    "latitude": 15.228129235491702,
    "longitude": 126.73597631453515,
    "altitude": 911645.3918233974
  },
  {
    "index": 46,
    "satnum": 152,
    "tle1": "1 00152U 61015AN  25311.97354927  .00000676  00000+0  37652-3 0  9993",
    "tle2": "2 00152  66.5911 163.3667 0151772 344.3075  15.3334 14.11304314294869",
    "latitude": 60.89667950346143,
    "longitude": -36.24073544429236,
    "altitude": 925068.4870399864
  },
  {
    "index": 47,
    "satnum": 154,
    "tle1": "1 00154U 61015AQ  25312.13686866  .00000525  00000+0  35716-3 0  9996",
    "tle2": "2 00154  66.6592 350.2347 0081784 171.6713 188.5753 14.06158191285552",
    "latitude": -13.211136068660508,
    "longitude": 15.960759306276625,
    "altitude": 936310.7216104772
  },
  {
    "index": 48,
    "satnum": 155,
    "tle1": "1 00155U 61015AR  25311.84003098  .00005060  00000+0  12969-2 0  9997",
    "tle2": "2 00155  66.8745 141.1076 0031888  67.1164 293.3307 14.50773178328982",
    "latitude": -17.201747122705367,
    "longitude": -0.729166762261623,
    "altitude": 744184.9802469197
  },
  {
    "index": 49,
    "satnum": 158,
    "tle1": "1 00158U 61015AU  25312.07072731  .00000545  00000+0  15420-2 0  9994",
    "tle2": "2 00158  67.0735 284.9251 0605819  17.8525 344.2794 12.66080102977352",
    "latitude": -34.651702165026755,
    "longitude": -60.24217075112285,
    "altitude": 1123219.7385740282
  },
  {
    "index": 50,
    "satnum": 159,
    "tle1": "1 00159U 61015AV  25311.83857288  .00000345  00000+0  93974-3 0  9995",
    "tle2": "2 00159  65.5283   4.0063 0376917 243.7839 112.3983 13.02966269 52017",
    "latitude": 55.08538504318156,
    "longitude": 75.51253999014833,
    "altitude": 1546202.2126623006
  }
]